0 COSMOS 886 DEB
1 09651U 76126H   13280.51726905  .00000837  00000-0  32857-3 0  7154
2 09651 065.7949 117.5323 0850298 021.6296 002.8685 13.18776737737560
0 COSMOS 886 DEB
1 09651U 76126H   13282.80449884  .00000983  00000-0  38002-3 0  7167
2 09651 065.7949 112.3237 0850356 020.6083 061.7239 13.18785741737862
0 COSMOS 886 DEB
1 09651U 76126H   13283.62203354  .00002390  00000-0  84528-3 0  7188
2 09651 065.7950 110.4644 0850028 020.2442 343.0693 13.18783492737979
0 COSMOS 886 DEB
1 09651U 76126H   13287.12944742  .00000521  00000-0  21635-3 0  7184
2 09651 065.7952 102.4744 0850626 018.6682 075.0086 13.18796410738438
0 COSMOS 886 DEB
1 09651U 76126H   13289.86052977  .00000538  00000-0  22207-3 0  7192
2 09651 065.7957 096.2546 0850800 017.4459 081.2965 13.18804316738795
0 COSMOS 886 DEB
1 09651U 76126H   13291.97891444  .00000716  00000-0  28483-3 0  7209
2 09651 065.7958 091.4301 0850949 016.5006 058.7382 13.18803144739076
0 COSMOS 886 DEB
1 09651U 76126H   13294.47898882  .00001001  00000-0  38494-3 0  7212
2 09651 065.7963 085.7368 0851103 015.3805 048.3378 13.18805049739401
